ATLAS CENTAUR R/B       
1 06155U 72065B   26095.24632313  .00001699  00000+0  23377-3 0  9992
2 06155  35.0006 150.1104 0034026 234.4237 125.3290 14.77768132845190
SL-8 R/B                
1 08459U 75112B   26095.07457678  .00000315  00000+0  11203-3 0  9996
2 08459  74.0620 330.3794 0014715  52.9529 307.2969 14.38219672635661
SL-3 R/B                
1 10114U 77057B   26095.25842278  .00016338  00000+0  33280-3 0  9992
2 10114  97.5806 268.3694 0007281 177.9658 182.1622 15.46306361672432
SEASAT 1                
1 10967U 78064A   26095.19638860  .00000478  00000+0  17179-3 0  9997
2 10967 108.0067 181.1152 0002733 272.2031  87.8802 14.46184646510348
SL-14 R/B               
1 11267U 79011B   26095.00571003  .00000897  00000+0  85966-4 0  9994
2 11267  82.5221  71.5917 0015288 335.0584  24.9895 14.91946028532709
SL-8 R/B                
1 11574U 79089B   26095.24065642  .00000448  00000+0  14331-3 0  9992
2 11574  74.0703  41.8915 0016489 210.7878 149.2313 14.42369799439935
SL-14 R/B               
1 11672U 80005B   26095.23741522  .00000817  00000+0  79958-4 0  9995
2 11672  82.5107 282.0459 0017219  76.3357 283.9778 14.90963526480442
SL-8 R/B                
1 12139U 81003B   26095.21607239  .00026742  00000+0  66451-3 0  9995
2 12139  82.9347 265.4699 0259608  86.5099 276.5785 15.12235300318687
SL-3 R/B                
1 12465U 81046B   26095.25457729  .00015547  00000+0  35338-3 0  9996
2 12465  81.2293 257.8222 0018057 287.5998  72.3273 15.42699969442523
SL-3 R/B                
1 12904U 81103B   26095.27499961  .00006254  00000+0  27458-3 0  9993
2 12904  81.1606 182.2451 0013112 192.2554 167.8361 15.21711769977273
SL-3 R/B                
1 13068U 82013B   26095.27259521  .00004665  00000+0  20013-3 0  9996
2 13068  81.1719 129.6078 0023529  90.7526 269.6402 15.22267140408393
SL-3 R/B                
1 13154U 82039B   26095.29277994  .00003680  00000+0  22159-3 0  9995
2 13154  81.1553 185.2847 0028142 235.6286 124.2278 15.10244354385655
