CCSDS_OMM_VERS = 2.0
CREATION_DATE  = 
ORIGINATOR     = 

OBJECT_NAME    = ATLAS CENTAUR R/B
OBJECT_ID      = 1972-065B
CENTER_NAME    = EARTH
REF_FRAME      = TEME
TIME_SYSTEM    = UTC
MEAN_ELEMENT_THEORY = SGP/SGP4

EPOCH          = 2026-04-05T05:54:42.318432
MEAN_MOTION    = 14.77768132
ECCENTRICITY   = .0034026
INCLINATION    = 35.0006
RA_OF_ASC_NODE = 150.1104
ARG_OF_PERICENTER = 234.4237
MEAN_ANOMALY   = 125.3290

EPHEMERIS_TYPE = 0
CLASSIFICATION_TYPE = U
NORAD_CAT_ID   = 6155
ELEMENT_SET_NO = 999
REV_AT_EPOCH   = 84519
BSTAR          = .23376573E-3
MEAN_MOTION_DOT = .1699E-4
MEAN_MOTION_DDOT = 0

CCSDS_OMM_VERS = 2.0
CREATION_DATE  = 
ORIGINATOR     = 

OBJECT_NAME    = SL-8 R/B
OBJECT_ID      = 1975-112B
CENTER_NAME    = EARTH
REF_FRAME      = TEME
TIME_SYSTEM    = UTC
MEAN_ELEMENT_THEORY = SGP/SGP4

EPOCH          = 2026-04-05T01:47:23.433792
MEAN_MOTION    = 14.38219672
ECCENTRICITY   = .00147151
INCLINATION    = 74.0620
RA_OF_ASC_NODE = 330.3794
ARG_OF_PERICENTER = 52.9529
MEAN_ANOMALY   = 307.2969

EPHEMERIS_TYPE = 0
CLASSIFICATION_TYPE = U
NORAD_CAT_ID   = 8459
ELEMENT_SET_NO = 999
REV_AT_EPOCH   = 63566
BSTAR          = .1120289E-3
MEAN_MOTION_DOT = .315E-5
MEAN_MOTION_DDOT = 0

CCSDS_OMM_VERS = 2.0
CREATION_DATE  = 
ORIGINATOR     = 

OBJECT_NAME    = SL-3 R/B
OBJECT_ID      = 1977-057B
CENTER_NAME    = EARTH
REF_FRAME      = TEME
TIME_SYSTEM    = UTC
MEAN_ELEMENT_THEORY = SGP/SGP4

EPOCH          = 2026-04-05T06:12:07.728192
MEAN_MOTION    = 15.46306361
ECCENTRICITY   = .00072814
INCLINATION    = 97.5806
RA_OF_ASC_NODE = 268.3694
ARG_OF_PERICENTER = 177.9658
MEAN_ANOMALY   = 182.1622

EPHEMERIS_TYPE = 0
CLASSIFICATION_TYPE = U
NORAD_CAT_ID   = 10114
ELEMENT_SET_NO = 999
REV_AT_EPOCH   = 67243
BSTAR          = .33280034E-3
MEAN_MOTION_DOT = .16338E-3
MEAN_MOTION_DDOT = 0

CCSDS_OMM_VERS = 2.0
CREATION_DATE  = 
ORIGINATOR     = 

OBJECT_NAME    = SEASAT 1
OBJECT_ID      = 1978-064A
CENTER_NAME    = EARTH
REF_FRAME      = TEME
TIME_SYSTEM    = UTC
MEAN_ELEMENT_THEORY = SGP/SGP4

EPOCH          = 2026-04-05T04:42:47.975040
MEAN_MOTION    = 14.46184646
ECCENTRICITY   = .00027333
INCLINATION    = 108.0067
RA_OF_ASC_NODE = 181.1152
ARG_OF_PERICENTER = 272.2031
MEAN_ANOMALY   = 87.8802

EPHEMERIS_TYPE = 0
CLASSIFICATION_TYPE = U
NORAD_CAT_ID   = 10967
ELEMENT_SET_NO = 999
REV_AT_EPOCH   = 51034
BSTAR          = .17178851E-3
MEAN_MOTION_DOT = .478E-5
MEAN_MOTION_DDOT = 0

CCSDS_OMM_VERS = 2.0
CREATION_DATE  = 
ORIGINATOR     = 

OBJECT_NAME    = SL-14 R/B
OBJECT_ID      = 1979-011B
CENTER_NAME    = EARTH
REF_FRAME      = TEME
TIME_SYSTEM    = UTC
MEAN_ELEMENT_THEORY = SGP/SGP4

EPOCH          = 2026-04-05T00:08:13.346592
MEAN_MOTION    = 14.91946028
ECCENTRICITY   = .00152889
INCLINATION    = 82.5221
RA_OF_ASC_NODE = 71.5917
ARG_OF_PERICENTER = 335.0584
MEAN_ANOMALY   = 24.9895

EPHEMERIS_TYPE = 0
CLASSIFICATION_TYPE = U
NORAD_CAT_ID   = 11267
ELEMENT_SET_NO = 999
REV_AT_EPOCH   = 53270
BSTAR          = .85966435E-4
MEAN_MOTION_DOT = .897E-5
MEAN_MOTION_DDOT = 0

CCSDS_OMM_VERS = 2.0
CREATION_DATE  = 
ORIGINATOR     = 

OBJECT_NAME    = SL-8 R/B
OBJECT_ID      = 1979-089B
CENTER_NAME    = EARTH
REF_FRAME      = TEME
TIME_SYSTEM    = UTC
MEAN_ELEMENT_THEORY = SGP/SGP4

EPOCH          = 2026-04-05T05:46:32.714688
MEAN_MOTION    = 14.42369799
ECCENTRICITY   = .00164895
INCLINATION    = 74.0703
RA_OF_ASC_NODE = 41.8915
ARG_OF_PERICENTER = 210.7878
MEAN_ANOMALY   = 149.2313

EPHEMERIS_TYPE = 0
CLASSIFICATION_TYPE = U
NORAD_CAT_ID   = 11574
ELEMENT_SET_NO = 999
REV_AT_EPOCH   = 43993
BSTAR          = .14330683E-3
MEAN_MOTION_DOT = .448E-5
MEAN_MOTION_DDOT = 0

CCSDS_OMM_VERS = 2.0
CREATION_DATE  = 
ORIGINATOR     = 

OBJECT_NAME    = SL-14 R/B
OBJECT_ID      = 1980-005B
CENTER_NAME    = EARTH
REF_FRAME      = TEME
TIME_SYSTEM    = UTC
MEAN_ELEMENT_THEORY = SGP/SGP4

EPOCH          = 2026-04-05T05:41:52.675008
MEAN_MOTION    = 14.90963526
ECCENTRICITY   = .0017219
INCLINATION    = 82.5107
RA_OF_ASC_NODE = 282.0459
ARG_OF_PERICENTER = 76.3357
MEAN_ANOMALY   = 283.9778

EPHEMERIS_TYPE = 0
CLASSIFICATION_TYPE = U
NORAD_CAT_ID   = 11672
ELEMENT_SET_NO = 999
REV_AT_EPOCH   = 48044
BSTAR          = .79957723E-4
MEAN_MOTION_DOT = .817E-5
MEAN_MOTION_DDOT = 0

CCSDS_OMM_VERS = 2.0
CREATION_DATE  = 
ORIGINATOR     = 

OBJECT_NAME    = SL-8 R/B
OBJECT_ID      = 1981-003B
CENTER_NAME    = EARTH
REF_FRAME      = TEME
TIME_SYSTEM    = UTC
MEAN_ELEMENT_THEORY = SGP/SGP4

EPOCH          = 2026-04-05T05:11:08.654496
MEAN_MOTION    = 15.12235300
ECCENTRICITY   = .02596082
INCLINATION    = 82.9347
RA_OF_ASC_NODE = 265.4699
ARG_OF_PERICENTER = 86.5099
MEAN_ANOMALY   = 276.5785

EPHEMERIS_TYPE = 0
CLASSIFICATION_TYPE = U
NORAD_CAT_ID   = 12139
ELEMENT_SET_NO = 999
REV_AT_EPOCH   = 31868
BSTAR          = .66451132E-3
MEAN_MOTION_DOT = .26742E-3
MEAN_MOTION_DDOT = 0

CCSDS_OMM_VERS = 2.0
CREATION_DATE  = 
ORIGINATOR     = 

OBJECT_NAME    = SL-3 R/B
OBJECT_ID      = 1981-046B
CENTER_NAME    = EARTH
REF_FRAME      = TEME
TIME_SYSTEM    = UTC
MEAN_ELEMENT_THEORY = SGP/SGP4

EPOCH          = 2026-04-05T06:06:35.477856
MEAN_MOTION    = 15.42699969
ECCENTRICITY   = .00180576
INCLINATION    = 81.2293
RA_OF_ASC_NODE = 257.8222
ARG_OF_PERICENTER = 287.5998
MEAN_ANOMALY   = 72.3273

EPHEMERIS_TYPE = 0
CLASSIFICATION_TYPE = U
NORAD_CAT_ID   = 12465
ELEMENT_SET_NO = 999
REV_AT_EPOCH   = 44252
BSTAR          = .35338395E-3
MEAN_MOTION_DOT = .15547E-3
MEAN_MOTION_DDOT = 0

CCSDS_OMM_VERS = 2.0
CREATION_DATE  = 
ORIGINATOR     = 

OBJECT_NAME    = SL-3 R/B
OBJECT_ID      = 1981-103B
CENTER_NAME    = EARTH
REF_FRAME      = TEME
TIME_SYSTEM    = UTC
MEAN_ELEMENT_THEORY = SGP/SGP4

EPOCH          = 2026-04-05T06:35:59.966304
MEAN_MOTION    = 15.21711769
ECCENTRICITY   = .00131125
INCLINATION    = 81.1606
RA_OF_ASC_NODE = 182.2451
ARG_OF_PERICENTER = 192.2554
MEAN_ANOMALY   = 167.8361

EPHEMERIS_TYPE = 0
CLASSIFICATION_TYPE = U
NORAD_CAT_ID   = 12904
ELEMENT_SET_NO = 999
REV_AT_EPOCH   = 97727
BSTAR          = .2745777E-3
MEAN_MOTION_DOT = .6254E-4
MEAN_MOTION_DDOT = 0

CCSDS_OMM_VERS = 2.0
CREATION_DATE  = 
ORIGINATOR     = 

OBJECT_NAME    = SL-3 R/B
OBJECT_ID      = 1982-013B
CENTER_NAME    = EARTH
REF_FRAME      = TEME
TIME_SYSTEM    = UTC
MEAN_ELEMENT_THEORY = SGP/SGP4

EPOCH          = 2026-04-05T06:32:32.226144
MEAN_MOTION    = 15.22267140
ECCENTRICITY   = .00235297
INCLINATION    = 81.1719
RA_OF_ASC_NODE = 129.6078
ARG_OF_PERICENTER = 90.7526
MEAN_ANOMALY   = 269.6402

EPHEMERIS_TYPE = 0
CLASSIFICATION_TYPE = U
NORAD_CAT_ID   = 13068
ELEMENT_SET_NO = 999
REV_AT_EPOCH   = 40839
BSTAR          = .2001332E-3
MEAN_MOTION_DOT = .4665E-4
MEAN_MOTION_DDOT = 0

CCSDS_OMM_VERS = 2.0
CREATION_DATE  = 
ORIGINATOR     = 

OBJECT_NAME    = SL-3 R/B
OBJECT_ID      = 1982-039B
CENTER_NAME    = EARTH
REF_FRAME      = TEME
TIME_SYSTEM    = UTC
MEAN_ELEMENT_THEORY = SGP/SGP4

EPOCH          = 2026-04-05T07:01:36.186816
MEAN_MOTION    = 15.10244354
ECCENTRICITY   = .00281429
INCLINATION    = 81.1553
RA_OF_ASC_NODE = 185.2847
ARG_OF_PERICENTER = 235.6286
MEAN_ANOMALY   = 124.2278

EPHEMERIS_TYPE = 0
CLASSIFICATION_TYPE = U
NORAD_CAT_ID   = 13154
ELEMENT_SET_NO = 999
REV_AT_EPOCH   = 38565
BSTAR          = .22159094E-3
MEAN_MOTION_DOT = .368E-4
MEAN_MOTION_DDOT = 0

